ONEWEB-0199             
1 48234U 21031AA  25362.14867380 -.00000041  00000+0 -14613-3 0  9997
2 48234  87.9011 323.7689 0001972  81.1317 279.0036 13.14501379225793
ONEWEB-0203             
1 48235U 21031AB  25362.29139149  .00000076  00000+0  17083-3 0  9999
2 48235  87.9005 323.7405 0001765  73.9736 286.1588 13.14500750225824
ONEWEB-0197             
1 48236U 21031AC  25362.26587780  .00000231  00000+0  58788-3 0  9995
2 48236  87.9007 323.7445 0001962  91.1198 269.0157 13.14502218225737
ONEWEB-0194             
1 48237U 21031AD  25361.94092485 -.00000158  00000+0 -46138-3 0  9999
2 48237  87.9007 323.8261 0001980  77.6208 282.5143 13.14500806225866
ONEWEB-0193             
1 48238U 21031AE  25362.26126072 -.00000002  00000+0 -40256-4 0  9990
2 48238  87.9005 323.7568 0002166  74.8725 285.2644 13.14500227225856
ONEWEB-0191             
1 48239U 21031AF  25362.27237460  .00000244  00000+0  62264-3 0  9994
2 48239  87.9015 323.7453 0001853  82.4749 277.6591 13.14503297225715
ONEWEB-0195             
1 48240U 21031AG  25362.17325430 -.00000108  00000+0 -32481-3 0  9999
2 48240  87.9015 323.7628 0001404  76.6796 283.4491 13.14503133225689
ONEWEB-0201             
1 48241U 21031AH  25361.93315459 -.00000148  00000+0 -43279-3 0  9994
2 48241  87.8996 323.8472 0001650  91.9967 268.1352 13.14503518225883
